[{"OBJECT_NAME":"STARLINK-34836","OBJECT_ID":"2025-191W","EPOCH":"2026-03-09T15:37:19.177824","MEAN_MOTION":15.05645449,"ECCENTRICITY":0.0002985,"INCLINATION":97.6027,"RA_OF_ASC_NODE":301.4895,"ARG_OF_PERICENTER":66.6441,"MEAN_ANOMALY":293.5099,"EPHEMERIS_TYPE":0,"CLASSIFICATION_TYPE":"U","NORAD_CAT_ID":65399,"ELEMENT_SET_NO":999,"REV_AT_EPOCH":3026,"BSTAR":0.00093942,"MEAN_MOTION_DOT":0.00013519,"MEAN_MOTION_DDOT":0},{"OBJECT_NAME":"COSMOS 886 DEB","OBJECT_ID":"1976-126AF","EPOCH":"2026-03-09T23:31:01.873920","MEAN_MOTION":14.3102807,"ECCENTRICITY":0.04259179,"INCLINATION":65.888,"RA_OF_ASC_NODE":14.8915,"ARG_OF_PERICENTER":257.6926,"MEAN_ANOMALY":97.6185,"EPHEMERIS_TYPE":0,"CLASSIFICATION_TYPE":"U","NORAD_CAT_ID":9819,"ELEMENT_SET_NO":999,"REV_AT_EPOCH":42137,"BSTAR":0.0011909255,"MEAN_MOTION_DOT":8.527e-5,"MEAN_MOTION_DDOT":0}]
